{
  "type": "FeatureCollection",
  "features": [
    {
      "type": "Feature",
      "properties": {
        "norad_id": 66624,
        "name": "STARLINK-35927",
        "group": "last-30-days",
        "lat": -50.20449866961889,
        "lon": 113.52399081000809,
        "alt_km": 329.03064296144476,
        "timestamp": "2025-12-04T03:47:53.337378+00:00",
        "meta_object_name": "STARLINK-35927",
        "meta_object_id": "2025-271H",
        "meta_epoch": "2025-12-02T16:00:03.000096",
        "meta_mean_motion": 15.86640895,
        "meta_eccentricity": 5.34e-05,
        "meta_inclination": 53.1579,
        "meta_ra_of_asc_node": 236.8716,
        "meta_arg_of_pericenter": 100.072,
        "meta_mean_anomaly": 280.9753,
        "meta_ephemeris_type": 0,
        "meta_classification_type": "U",
        "meta_norad_cat_id": 66624,
        "meta_element_set_no": 999,
        "meta_rev_at_epoch": 262,
        "meta_bstar": -0.0061391,
        "meta_mean_motion_dot": -0.01392931,
        "meta_mean_motion_ddot": 0,
        "tle_line1": "1 66624U 25271H   25336.66670139 -.01392931  00000+0 -61391-2 0  9999",
        "tle_line2": "2 66624  53.1579 236.8716 0000534 100.0720 280.9753 15.86640895  2627"
      },
      "geometry": {
        "type": "Point",
        "coordinates": [
          113.52399081000809,
          -50.20449866961889
        ]
      }
    },
    {
      "type": "Feature",
      "properties": {
        "norad_id": 66625,
        "name": "STARLINK-35929",
        "group": "last-30-days",
        "lat": -51.59983217746412,
        "lon": 120.43189460144998,
        "alt_km": 329.0896886758528,
        "timestamp": "2025-12-04T03:47:53.337390+00:00",
        "meta_object_name": "STARLINK-35929",
        "meta_object_id": "2025-271J",
        "meta_epoch": "2025-12-02T16:00:03.000096",
        "meta_mean_motion": 15.86692566,
        "meta_eccentricity": 6.47e-05,
        "meta_inclination": 53.1578,
        "meta_ra_of_asc_node": 236.8624,
        "meta_arg_of_pericenter": 107.5282,
        "meta_mean_anomaly": 277.9373,
        "meta_ephemeris_type": 0,
        "meta_classification_type": "U",
        "meta_norad_cat_id": 66625,
        "meta_element_set_no": 999,
        "meta_rev_at_epoch": 262,
        "meta_bstar": -0.0061849,
        "meta_mean_motion_dot": -0.01405175,
        "meta_mean_motion_ddot": 0,
        "tle_line1": "1 66625U 25271J   25336.66670139 -.01405175  00000+0 -61849-2 0  9993",
        "tle_line2": "2 66625  53.1578 236.8624 0000647 107.5282 277.9373 15.86692566  2621"
      },
      "geometry": {
        "type": "Point",
        "coordinates": [
          120.43189460144998,
          -51.59983217746412
        ]
      }
    },
    {
      "type": "Feature",
      "properties": {
        "norad_id": 66626,
        "name": "STARLINK-35902",
        "group": "last-30-days",
        "lat": -52.17019850266791,
        "lon": 124.26850590557432,
        "alt_km": 329.1658910022634,
        "timestamp": "2025-12-04T03:47:53.337400+00:00",
        "meta_object_name": "STARLINK-35902",
        "meta_object_id": "2025-271K",
        "meta_epoch": "2025-12-02T16:00:03.000096",
        "meta_mean_motion": 15.86719001,
        "meta_eccentricity": 6.58e-05,
        "meta_inclination": 53.1578,
        "meta_ra_of_asc_node": 236.8575,
        "meta_arg_of_pericenter": 110.0104,
        "meta_mean_anomaly": 277.886,
        "meta_ephemeris_type": 0,
        "meta_classification_type": "U",
        "meta_norad_cat_id": 66626,
        "meta_element_set_no": 999,
        "meta_rev_at_epoch": 262,
        "meta_bstar": -0.0062488,
        "meta_mean_motion_dot": -0.01419385,
        "meta_mean_motion_ddot": 0,
        "tle_line1": "1 66626U 25271K   25336.66670139 -.01419385  00000+0 -62488-2 0  9992",
        "tle_line2": "2 66626  53.1578 236.8575 0000658 110.0104 277.8860 15.86719001  2625"
      },
      "geometry": {
        "type": "Point",
        "coordinates": [
          124.26850590557432,
          -52.17019850266791
        ]
      }
    },
    {
      "type": "Feature",
      "properties": {
        "norad_id": 66627,
        "name": "STARLINK-35904",
        "group": "last-30-days",
        "lat": -52.62817434506682,
        "lon": 128.3579851651986,
        "alt_km": 329.1647715953586,
        "timestamp": "2025-12-04T03:47:53.337410+00:00",
        "meta_object_name": "STARLINK-35904",
        "meta_object_id": "2025-271L",
        "meta_epoch": "2025-12-02T16:00:03.000096",
        "meta_mean_motion": 15.86735143,
        "meta_eccentricity": 5.59e-05,
        "meta_inclination": 53.1576,
        "meta_ra_of_asc_node": 236.8519,
        "meta_arg_of_pericenter": 104.1205,
        "meta_mean_anomaly": 286.2982,
        "meta_ephemeris_type": 0,
        "meta_classification_type": "U",
        "meta_norad_cat_id": 66627,
        "meta_element_set_no": 999,
        "meta_rev_at_epoch": 246,
        "meta_bstar": -0.0062783,
        "meta_mean_motion_dot": -0.01426126,
        "meta_mean_motion_ddot": 0,
        "tle_line1": "1 66627U 25271L   25336.66670139 -.01426126  00000+0 -62783-2 0  9992",
        "tle_line2": "2 66627  53.1576 236.8519 0000559 104.1205 286.2982 15.86735143  2464"
      },
      "geometry": {
        "type": "Point",
        "coordinates": [
          128.3579851651986,
          -52.62817434506682
        ]
      }
    },
    {
      "type": "Feature",
      "properties": {
        "norad_id": 66628,
        "name": "STARLINK-35862",
        "group": "last-30-days",
        "lat": -52.916582798209944,
        "lon": 132.08337450880643,
        "alt_km": 329.1600168055729,
        "timestamp": "2025-12-04T03:47:53.337420+00:00",
        "meta_object_name": "STARLINK-35862",
        "meta_object_id": "2025-271M",
        "meta_epoch": "2025-12-02T16:00:03.000096",
        "meta_mean_motion": 15.86761696,
        "meta_eccentricity": 5.41e-05,
        "meta_inclination": 53.1577,
        "meta_ra_of_asc_node": 236.8477,
        "meta_arg_of_pericenter": 96.8821,
        "meta_mean_anomaly": 295.7339,
        "meta_ephemeris_type": 0,
        "meta_classification_type": "U",
        "meta_norad_cat_id": 66628,
        "meta_element_set_no": 999,
        "meta_rev_at_epoch": 262,
        "meta_bstar": -0.006303,
        "meta_mean_motion_dot": -0.01432606,
        "meta_mean_motion_ddot": 0,
        "tle_line1": "1 66628U 25271M   25336.66670139 -.01432606  00000+0 -63030-2 0  9999",
        "tle_line2": "2 66628  53.1577 236.8477 0000541  96.8821 295.7339 15.86761696  2622"
      },
      "geometry": {
        "type": "Point",
        "coordinates": [
          132.08337450880643,
          -52.916582798209944
        ]
      }
    },
    {
      "type": "Feature",
      "properties": {
        "norad_id": 66629,
        "name": "STARLINK-35956",
        "group": "last-30-days",
        "lat": -53.09116601155888,
        "lon": 136.0064237909522,
        "alt_km": 329.1597981207142,
        "timestamp": "2025-12-04T03:47:53.337430+00:00",
        "meta_object_name": "STARLINK-35956",
        "meta_object_id": "2025-271N",
        "meta_epoch": "2025-12-02T16:00:03.000096",
        "meta_mean_motion": 15.86788757,
        "meta_eccentricity": 5.13e-05,
        "meta_inclination": 53.1576,
        "meta_ra_of_asc_node": 236.8428,
        "meta_arg_of_pericenter": 107.0461,
        "meta_mean_anomaly": 287.9009,
        "meta_ephemeris_type": 0,
        "meta_classification_type": "U",
        "meta_norad_cat_id": 66629,
        "meta_element_set_no": 999,
        "meta_rev_at_epoch": 262,
        "meta_bstar": -0.0063518,
        "meta_mean_motion_dot": -0.01443853,
        "meta_mean_motion_ddot": 0,
        "tle_line1": "1 66629U 25271N   25336.66670139 -.01443853  00000+0 -63518-2 0  9997",
        "tle_line2": "2 66629  53.1576 236.8428 0000513 107.0461 287.9009 15.86788757  2626"
      },
      "geometry": {
        "type": "Point",
        "coordinates": [
          136.0064237909522,
          -53.09116601155888
        ]
      }
    },
    {
      "type": "Feature",
      "properties": {
        "norad_id": 66630,
        "name": "STARLINK-35949",
        "group": "last-30-days",
        "lat": -53.13696068835538,
        "lon": 139.59911127861983,
        "alt_km": 329.23702151488305,
        "timestamp": "2025-12-04T03:47:53.337439+00:00",
        "meta_object_name": "STARLINK-35949",
        "meta_object_id": "2025-271P",
        "meta_epoch": "2025-12-02T16:00:03.000096",
        "meta_mean_motion": 15.86820273,
        "meta_eccentricity": 6.98e-05,
        "meta_inclination": 53.1575,
        "meta_ra_of_asc_node": 236.8382,
        "meta_arg_of_pericenter": 114.0731,
        "meta_mean_anomaly": 282.9235,
        "meta_ephemeris_type": 0,
        "meta_classification_type": "U",
        "meta_norad_cat_id": 66630,
        "meta_element_set_no": 999,
        "meta_rev_at_epoch": 262,
        "meta_bstar": -0.0063737,
        "meta_mean_motion_dot": -0.01450251,
        "meta_mean_motion_ddot": 0,
        "tle_line1": "1 66630U 25271P   25336.66670139 -.01450251  00000+0 -63737-2 0  9992",
        "tle_line2": "2 66630  53.1575 236.8382 0000698 114.0731 282.9235 15.86820273  2624"
      },
      "geometry": {
        "type": "Point",
        "coordinates": [
          139.59911127861983,
          -53.13696068835538
        ]
      }
    }
  ]
}